start=new Date('2022-09-12T00:00:00.000Z').valueOf();
sats=[{"MEAN_ELEMENT_THEORY":"SGP4","FILE":"3569361","NORAD_CAT_ID":"47677","BSTAR":"0.00005617900000","CLASSIFICATION_TYPE":"U","ARG_OF_PERICENTER":"72.3624","REF_FRAME":"TEME","GP_ID":"212356585","ECCENTRICITY":"0.00014170","RCS_SIZE":"LARGE","CENTER_NAME":"EARTH","PERIOD":"95.592","DECAY_DATE":null,"ELEMENT_SET_NO":"999","OBJECT_NAME":"STARLINK-2090","MEAN_MOTION":"15.06400756","INCLINATION":"53.0557","MEAN_MOTION_DOT":"0.00000555","MEAN_ANOMALY":"287.7519","SITE":"AFETR","LAUNCH_DATE":"2021-02-16","COUNTRY_CODE":"US","APOAPSIS":"548.193","OBJECT_ID":"2021-012BK","RA_OF_ASC_NODE":"34.7883","TIME_SYSTEM":"UTC","TLE_LINE1":"1 47677U 21012BK  22254.80531940  .00000555  00000-0  56179-4 0  9999","TLE_LINE2":"2 47677  53.0557  34.7883 0001417  72.3624 287.7519 15.06400756 87826","PERIAPSIS":"546.230","EPOCH":"2022-09-11T19:19:39.596160","SEMIMAJOR_AXIS":"6925.346","MEAN_MOTION_DDOT":"0.0000000000000","EPHEMERIS_TYPE":"0","OBJECT_TYPE":"PAYLOAD","REV_AT_EPOCH":"8782"},{"OBJECT_ID":"2021-012BM","RA_OF_ASC_NODE":"34.6771","SITE":"AFETR","LAUNCH_DATE":"2021-02-16","COUNTRY_CODE":"US","APOAPSIS":"548.109","EPHEMERIS_TYPE":"0","OBJECT_TYPE":"PAYLOAD","REV_AT_EPOCH":"8784","TIME_SYSTEM":"UTC","TLE_LINE2":"2 47679  53.0556  34.6771 0001317  81.2583 278.8555 15.06405355 87847","TLE_LINE1":"1 47679U 21012BM  22254.83480364  .00001019  00000-0  87306-4 0  9999","PERIAPSIS":"546.285","SEMIMAJOR_AXIS":"6925.332","MEAN_MOTION_DDOT":"0.0000000000000","EPOCH":"2022-09-11T20:02:07.034496","GP_ID":"212356334","ECCENTRICITY":"0.00013170","REF_FRAME":"TEME","PERIOD":"95.592","RCS_SIZE":"LARGE","CENTER_NAME":"EARTH","MEAN_ELEMENT_THEORY":"SGP4","FILE":"3569361","NORAD_CAT_ID":"47679","ARG_OF_PERICENTER":"81.2583","BSTAR":"0.00008730600000","CLASSIFICATION_TYPE":"U","MEAN_MOTION":"15.06405355","INCLINATION":"53.0556","MEAN_MOTION_DOT":"0.00001019","MEAN_ANOMALY":"278.8555","DECAY_DATE":null,"ELEMENT_SET_NO":"999","OBJECT_NAME":"STARLINK-2095"},{"LAUNCH_DATE":"2021-03-04","SITE":"AFETR","APOAPSIS":"548.163","COUNTRY_CODE":"US","OBJECT_ID":"2021-017A","RA_OF_ASC_NODE":"159.7045","TIME_SYSTEM":"UTC","PERIAPSIS":"546.267","EPOCH":"2022-09-11T21:03:54.250272","SEMIMAJOR_AXIS":"6925.350","MEAN_MOTION_DDOT":"0.0000000000000","TLE_LINE2":"2 47722  53.0541 159.7045 0001369  83.4539 276.6605 15.06399431 85842","TLE_LINE1":"1 47722U 21017A   22254.87771123  .00001070  00000-0  90715-4 0  9998","EPHEMERIS_TYPE":"0","REV_AT_EPOCH":"8584","OBJECT_TYPE":"PAYLOAD","FILE":"3569361","NORAD_CAT_ID":"47722","MEAN_ELEMENT_THEORY":"SGP4","BSTAR":"0.00009071500000","ARG_OF_PERICENTER":"83.4539","CLASSIFICATION_TYPE":"U","GP_ID":"212355588","REF_FRAME":"TEME","ECCENTRICITY":"0.00013690","PERIOD":"95.592","RCS_SIZE":"LARGE","CENTER_NAME":"EARTH","ELEMENT_SET_NO":"999","DECAY_DATE":null,"OBJECT_NAME":"STARLINK-2068","MEAN_MOTION_DOT":"0.00001070","MEAN_MOTION":"15.06399431","INCLINATION":"53.0541","MEAN_ANOMALY":"276.6605"},{"OBJECT_ID":"2021-017B","RA_OF_ASC_NODE":"94.7444","SITE":"AFETR","LAUNCH_DATE":"2021-03-04","COUNTRY_CODE":"US","APOAPSIS":"548.111","EPHEMERIS_TYPE":"0","OBJECT_TYPE":"PAYLOAD","REV_AT_EPOCH":"8671","TIME_SYSTEM":"UTC","TLE_LINE1":"1 47723U 21017B   22254.81920380 -.00003355  00000-0 -20664-3 0  9999","TLE_LINE2":"2 47723  53.0551  94.7444 0001141  99.1028 261.0090 15.06365044 86716","PERIAPSIS":"546.531","SEMIMAJOR_AXIS":"6925.456","MEAN_MOTION_DDOT":"0.0000000000000","EPOCH":"2022-09-11T19:39:39.208320","GP_ID":"212355339","ECCENTRICITY":"0.00011410","REF_FRAME":"TEME","RCS_SIZE":"LARGE","PERIOD":"95.594","CENTER_NAME":"EARTH","MEAN_ELEMENT_THEORY":"SGP4","NORAD_CAT_ID":"47723","FILE":"3569361","CLASSIFICATION_TYPE":"U","BSTAR":"-0.00020664000000","ARG_OF_PERICENTER":"99.1028","INCLINATION":"53.0551","MEAN_MOTION":"15.06365044","MEAN_MOTION_DOT":"-0.00003355","MEAN_ANOMALY":"261.0090","DECAY_DATE":null,"ELEMENT_SET_NO":"999","OBJECT_NAME":"STARLINK-2107"},{"RA_OF_ASC_NODE":"94.8749","OBJECT_ID":"2021-017C","COUNTRY_CODE":"US","APOAPSIS":"548.179","SITE":"AFETR","LAUNCH_DATE":"2021-03-04","OBJECT_TYPE":"PAYLOAD","REV_AT_EPOCH":"8667","EPHEMERIS_TYPE":"0","TLE_LINE2":"2 47724  53.0549  94.8749 0001383  80.8714 279.2431 15.06397661 86675","TLE_LINE1":"1 47724U 21017C   22254.78968880  .00001729  00000-0  13492-3 0  9995","MEAN_MOTION_DDOT":"0.0000000000000","PERIAPSIS":"546.263","SEMIMAJOR_AXIS":"6925.356","EPOCH":"2022-09-11T18:57:09.112320","TIME_SYSTEM":"UTC","RCS_SIZE":"LARGE","PERIOD":"95.592","CENTER_NAME":"EARTH","GP_ID":"212356590","REF_FRAME":"TEME","ECCENTRICITY":"0.00013830","BSTAR":"0.00013492000000","CLASSIFICATION_TYPE":"U","ARG_OF_PERICENTER":"80.8714","MEAN_ELEMENT_THEORY":"SGP4","FILE":"3569361","NORAD_CAT_ID":"47724","MEAN_ANOMALY":"279.2431","MEAN_MOTION":"15.06397661","INCLINATION":"53.0549","MEAN_MOTION_DOT":"0.00001729","OBJECT_NAME":"STARLINK-2116","ELEMENT_SET_NO":"999","DECAY_DATE":null},{"MEAN_ANOMALY":"292.6740","MEAN_MOTION_DOT":"0.00000694","MEAN_MOTION":"15.06397783","INCLINATION":"53.0535","OBJECT_NAME":"STARLINK-2125","ELEMENT_SET_NO":"999","DECAY_DATE":null,"RCS_SIZE":"LARGE","PERIOD":"95.592","CENTER_NAME":"EARTH","GP_ID":"212356339","ECCENTRICITY":"0.00013560","REF_FRAME":"TEME","BSTAR":"0.00006547000000","ARG_OF_PERICENTER":"67.4393","CLASSIFICATION_TYPE":"U","FILE":"3569361","NORAD_CAT_ID":"47725","MEAN_ELEMENT_THEORY":"SGP4","REV_AT_EPOCH":"8572","OBJECT_TYPE":"PAYLOAD","EPHEMERIS_TYPE":"0","PERIAPSIS":"546.281","SEMIMAJOR_AXIS":"6925.355","EPOCH":"2022-09-11T21:21:46.310112","MEAN_MOTION_DDOT":"0.0000000000000","TLE_LINE1":"1 47725U 21017D   22254.89011933  .00000694  00000-0  65470-4 0  9990","TLE_LINE2":"2 47725  53.0535 164.4252 0001356  67.4393 292.6740 15.06397783 85720","TIME_SYSTEM":"UTC","RA_OF_ASC_NODE":"164.4252","OBJECT_ID":"2021-017D","APOAPSIS":"548.159","COUNTRY_CODE":"US","LAUNCH_DATE":"2021-03-04","SITE":"AFETR"},{"MEAN_MOTION_DOT":"-0.00000211","INCLINATION":"53.0543","MEAN_MOTION":"15.06399854","MEAN_ANOMALY":"297.9041","ELEMENT_SET_NO":"999","DECAY_DATE":null,"OBJECT_NAME":"STARLINK-2126","ECCENTRICITY":"0.00016900","GP_ID":"212355089","REF_FRAME":"TEME","RCS_SIZE":"LARGE","PERIOD":"95.592","CENTER_NAME":"EARTH","NORAD_CAT_ID":"47726","FILE":"3569361","MEAN_ELEMENT_THEORY":"SGP4","BSTAR":"0.00000475900000","ARG_OF_PERICENTER":"62.2119","CLASSIFICATION_TYPE":"U","EPHEMERIS_TYPE":"0","REV_AT_EPOCH":"8569","OBJECT_TYPE":"PAYLOAD","TIME_SYSTEM":"UTC","PERIAPSIS":"546.044","MEAN_MOTION_DDOT":"0.0000000000000","SEMIMAJOR_AXIS":"6925.349","EPOCH":"2022-09-11T17:49:28.353792","TLE_LINE1":"1 47726U 21017E   22254.74268928 -.00000211  00000-0  47590-5 0  9993","TLE_LINE2":"2 47726  53.0543 165.0826 0001690  62.2119 297.9041 15.06399854 85693","OBJECT_ID":"2021-017E","RA_OF_ASC_NODE":"165.0826","LAUNCH_DATE":"2021-03-04","SITE":"AFETR","APOAPSIS":"548.384","COUNTRY_CODE":"US"},{"SITE":"AFETR","LAUNCH_DATE":"2021-03-04","COUNTRY_CODE":"US","APOAPSIS":"548.309","OBJECT_ID":"2021-017F","RA_OF_ASC_NODE":"84.4186","TIME_SYSTEM":"UTC","TLE_LINE1":"1 47727U 21017F   22254.89287230 -.00000791  00000-0 -34186-4 0  9997","TLE_LINE2":"2 47727  53.0546  84.4186 0001589  70.9363 289.1798 15.06401548 86871","SEMIMAJOR_AXIS":"6925.344","PERIAPSIS":"546.108","EPOCH":"2022-09-11T21:25:44.166720","MEAN_MOTION_DDOT":"0.0000000000000","EPHEMERIS_TYPE":"0","OBJECT_TYPE":"PAYLOAD","REV_AT_EPOCH":"8687","MEAN_ELEMENT_THEORY":"SGP4","FILE":"3569361","NORAD_CAT_ID":"47727","BSTAR":"-0.00003418600000","CLASSIFICATION_TYPE":"U","ARG_OF_PERICENTER":"70.9363","GP_ID":"212355839","REF_FRAME":"TEME","ECCENTRICITY":"0.00015890","RCS_SIZE":"LARGE","PERIOD":"95.592","CENTER_NAME":"EARTH","ELEMENT_SET_NO":"999","DECAY_DATE":null,"OBJECT_NAME":"STARLINK-2129","MEAN_MOTION":"15.06401548","INCLINATION":"53.0546","MEAN_MOTION_DOT":"-0.00000791","MEAN_ANOMALY":"289.1798"},{"RCS_SIZE":"LARGE","PERIOD":"95.591","CENTER_NAME":"EARTH","GP_ID":"212275846","ECCENTRICITY":"0.00014830","REF_FRAME":"TEME","BSTAR":"0.00022734000000","ARG_OF_PERICENTER":"79.0713","CLASSIFICATION_TYPE":"U","NORAD_CAT_ID":"47728","FILE":"3567924","MEAN_ELEMENT_THEORY":"SGP4","MEAN_ANOMALY":"281.0443","MEAN_MOTION_DOT":"0.00003107","INCLINATION":"53.0535","MEAN_MOTION":"15.06411087","OBJECT_NAME":"STARLINK-2131","ELEMENT_SET_NO":"999","DECAY_DATE":null,"RA_OF_ASC_NODE":"167.5796","OBJECT_ID":"2021-017G","APOAPSIS":"548.207","COUNTRY_CODE":"US","LAUNCH_DATE":"2021-03-04","SITE":"AFETR","REV_AT_EPOCH":"8499","OBJECT_TYPE":"PAYLOAD","EPHEMERIS_TYPE":"0","SEMIMAJOR_AXIS":"6925.315","PERIAPSIS":"546.153","MEAN_MOTION_DDOT":"0.0000000000000","EPOCH":"2022-09-11T04:28:00.344640","TLE_LINE1":"1 47728U 21017G   22254.18611510  .00003107  00000-0  22734-3 0  9999","TLE_LINE2":"2 47728  53.0535 167.5796 0001483  79.0713 281.0443 15.06411087 84990","TIME_SYSTEM":"UTC"},{"REF_FRAME":"TEME","GP_ID":"212356839","ECCENTRICITY":"0.00014690","RCS_SIZE":"LARGE","PERIOD":"95.592","CENTER_NAME":"EARTH","MEAN_ELEMENT_THEORY":"SGP4","FILE":"3569361","NORAD_CAT_ID":"47729","BSTAR":"0.00001960300000","ARG_OF_PERICENTER":"89.5104","CLASSIFICATION_TYPE":"U","MEAN_MOTION":"15.06396397","INCLINATION":"53.0547","MEAN_MOTION_DOT":"0.00000010","MEAN_ANOMALY":"270.6053","ELEMENT_SET_NO":"999","DECAY_DATE":null,"OBJECT_NAME":"STARLINK-2132","OBJECT_ID":"2021-017H","RA_OF_ASC_NODE":"109.6781","SITE":"AFETR","LAUNCH_DATE":"2021-03-04","COUNTRY_CODE":"US","APOAPSIS":"548.242","EPHEMERIS_TYPE":"0","OBJECT_TYPE":"PAYLOAD","REV_AT_EPOCH":"8648","TIME_SYSTEM":"UTC","TLE_LINE1":"1 47729U 21017H   22254.87863924  .00000010  00000-0  19603-4 0  9996","TLE_LINE2":"2 47729  53.0547 109.6781 0001469  89.5104 270.6053 15.06396397 86482","PERIAPSIS":"546.207","EPOCH":"2022-09-11T21:05:14.430336","SEMIMAJOR_AXIS":"6925.360","MEAN_MOTION_DDOT":"0.0000000000000"}];
